{
"type": "FeatureCollection",
"name": "aaps_boundary",
"crs": { "type": "name", "properties": { "name": "urn:ogc:def:crs:EPSG::26917" } },
"features": [
{ "type": "Feature", "properties": { "STATEFP": "26", "UNSDLEA": "02820", "GEOID": "2602820", "GEOIDFQ": "9700000US2602820", "NAME": "Ann Arbor Public Schools", "LSAD": "00", "LOGRADE": "PK", "HIGRADE": "12", "MTFCC": "G5420", "SDTYP": null, "FUNCSTAT": "E", "ALAND": 264568670, "AWATER": 4005924, "INTPTLAT": "+42.2879295", "INTPTLON": "-083.7362970" }, "geometry": { "type": "Polygon", "coordinates": [ [ [ 263069.3993591236067, 4685403.446307778358459 ], [ 263103.131760918418877, 4685945.172146266326308 ], [ 263189.578006695199292, 4685967.823177313432097 ], [ 263357.813954907353036, 4686012.173663257621229 ], [ 263553.281710016774014, 4686063.725659109652042 ], [ 263602.585680174524896, 4686076.738711564801633 ], [ 263623.733538552420214, 4686246.233329930342734 ], [ 263617.160712782409973, 4686323.053749085403979 ], [ 263671.975001930259168, 4686920.879117120057344 ], [ 263673.203600099717733, 4686932.844510357826948 ], [ 263677.643464740482159, 4686947.036330538801849 ], [ 263682.004618349485099, 4686961.341979390010238 ], [ 263767.023234023712575, 4687209.063388598151505 ], [ 264134.004160740063526, 4687196.04137922078371 ], [ 264116.733553945552558, 4686942.701904156245291 ], [ 264154.078769863408525, 4686936.55407328158617 ], [ 264200.987210049410351, 4686927.639031393453479 ], [ 264246.220835784450173, 4686918.002406699582934 ], [ 264301.29902929905802, 4686904.144098901189864 ], [ 264358.779679992003366, 4686888.093211536295712 ], [ 264376.414881385164335, 4686882.386633352376521 ], [ 264389.560725791146979, 4686878.165023513138294 ], [ 264443.553546994517092, 4686859.008031432516873 ], [ 264547.70395192457363, 4686858.845312995836139 ], [ 265926.598923559184186, 4686823.019822645001113 ], [ 265993.135627718584146, 4686818.575654872693121 ], [ 266120.816192862810567, 4686821.208554131910205 ], [ 266285.116888942720834, 4686825.624741821549833 ], [ 266392.164917320653331, 4686828.283232607878745 ], [ 266396.53206308663357, 4687432.4630111977458 ], [ 266405.836405197333079, 4688068.273847504518926 ], [ 266411.997620909358375, 4688364.562009692192078 ], [ 266413.54848036414478, 4688438.3279988784343 ], [ 266416.960726378078107, 4688837.763730564154685 ], [ 266417.087081348639913, 4688943.038739213719964 ], [ 266416.185553292743862, 4688967.971164558082819 ], [ 266414.751771399867721, 4688984.361142038367689 ], [ 266410.734548851847649, 4688997.502098982222378 ], [ 266404.47270680667134, 4689012.607798301614821 ], [ 266393.267883570631966, 4689032.881002039648592 ], [ 266358.204688602010719, 4689092.30383038148284 ], [ 266336.451334751036484, 4689122.823137976229191 ], [ 266273.207364397821948, 4689215.426023552194238 ], [ 266269.03591651370516, 4689221.457262168638408 ], [ 266260.700452169054188, 4689233.74184381775558 ], [ 266221.700340100331232, 4689278.955727920867503 ], [ 266205.897290377761237, 4689297.381642147898674 ], [ 266178.545150166493841, 4689328.19953684695065 ], [ 266151.063536266447045, 4689355.130868898704648 ], [ 266622.23272097541485, 4689308.293271063826978 ], [ 267191.259660701849498, 4689251.787700109183788 ], [ 267192.242696990957484, 4689174.602731651626527 ], [ 267186.282857079349924, 4688697.212637724354863 ], [ 267160.789964658673853, 4688456.375200043432415 ], [ 267579.138161315931939, 4688424.702090211212635 ], [ 267581.245655306614935, 4688473.324598714709282 ], [ 267581.448199032689445, 4688479.432224316522479 ], [ 267583.9931327997474, 4688588.516642735339701 ], [ 267586.33243541745469, 4688683.934000673703849 ], [ 267989.152136600576341, 4688679.59125068038702 ], [ 267984.413775066379458, 4688494.095189195126295 ], [ 267982.46146665874403, 4688417.675276886671782 ], [ 268384.849595664767548, 4688407.367493369616568 ], [ 268387.293722261907533, 4688421.405175203457475 ], [ 268395.343527157674544, 4688455.268015434965491 ], [ 268399.751886179437861, 4688483.803918191231787 ], [ 268400.807258583139628, 4688490.772684576921165 ], [ 268401.203283480601385, 4688497.763239681720734 ], [ 268404.388444856274873, 4688561.691285147331655 ], [ 268405.326044023677241, 4688679.944057166576385 ], [ 268403.412657232605852, 4688804.294199458323419 ], [ 268404.108215475920588, 4688855.297778363339603 ], [ 268404.717719521606341, 4688906.193036636337638 ], [ 268404.694981979206204, 4688950.439053970389068 ], [ 268404.44226914778119, 4689167.449368021450937 ], [ 268405.414048528706189, 4689236.786746513098478 ], [ 268646.733964424522128, 4689304.520546390675008 ], [ 268617.202737888845149, 4689314.611550726927817 ], [ 268577.755654489737935, 4689336.702925589866936 ], [ 268534.519739105831832, 4689356.473989677615464 ], [ 268466.462525818904396, 4689401.522717687301338 ], [ 268431.212848309136461, 4689438.261770244687796 ], [ 268406.720107581000775, 4689470.976867279037833 ], [ 268394.339326594315935, 4689500.734779646620154 ], [ 268390.488518017693423, 4689528.987872901372612 ], [ 268395.737456648144871, 4689560.497563347220421 ], [ 268406.077768743503839, 4689623.74449834227562 ], [ 268406.61639321281109, 4689674.975676455534995 ], [ 268382.013726849283557, 4689806.635175781324506 ], [ 268385.228697552578524, 4689866.449095314368606 ], [ 268391.503516484168358, 4689904.039175889454782 ], [ 268413.518569909967482, 4689938.663162113167346 ], [ 268449.166648218757473, 4689978.950865364633501 ], [ 268481.571946496202145, 4690001.002986420877278 ], [ 268518.759593146271072, 4690018.005768278613687 ], [ 268545.904621900990605, 4690025.668836743570864 ], [ 268574.001408000010997, 4690027.186264733783901 ], [ 268596.002258537570015, 4690026.459455791860819 ], [ 268666.660685691516846, 4690050.361558790318668 ], [ 268701.880972784943879, 4690067.763737248256803 ], [ 268745.344516494194977, 4690132.47421482950449 ], [ 268768.629850716330111, 4690225.643202601000667 ], [ 268805.316025112988427, 4690317.480552788823843 ], [ 268811.067122078849934, 4690434.240359077230096 ], [ 268791.574804313306231, 4690505.920701460912824 ], [ 268791.859337206115015, 4690527.033400266431272 ], [ 268830.34637463564286, 4690518.537027281709015 ], [ 268809.885986252280418, 4690545.892897399142385 ], [ 268777.619922009645961, 4690580.419884138740599 ], [ 268758.959651501034386, 4690604.826111856848001 ], [ 268711.993703470157925, 4690646.286607428453863 ], [ 268662.381892997829709, 4690675.050411399453878 ], [ 268624.369127672747709, 4690697.872933674603701 ], [ 268584.762471347232349, 4690729.864220119081438 ], [ 268562.445976796327159, 4690740.940393105149269 ], [ 268552.505136737425346, 4690831.983002891764045 ], [ 268546.514123054454103, 4690852.85848087631166 ], [ 268541.223913136520423, 4690867.48532648012042 ], [ 268523.50742923875805, 4690905.423768997192383 ], [ 268514.954364386096131, 4690916.156396934762597 ], [ 268505.74017038254533, 4690924.353997437283397 ], [ 268496.225392799125984, 4690928.44828303065151 ], [ 268481.55841738532763, 4690931.378878306597471 ], [ 268461.226545632176567, 4690932.606919713318348 ], [ 268444.428475206834264, 4690935.94156230147928 ], [ 268438.167325657559559, 4690941.151213095523417 ], [ 268433.171864038333297, 4690952.210996530018747 ], [ 268428.969862395315431, 4691009.713364842347801 ], [ 268423.026172284502536, 4691079.390813044272363 ], [ 268422.023963431711309, 4691128.894362537190318 ], [ 268424.613734059501439, 4691252.095659750513732 ], [ 268425.574818288558163, 4691380.909319996833801 ], [ 268424.986556353454944, 4691520.224188714288175 ], [ 268278.588220635312609, 4691519.953875930048525 ], [ 268255.989616046310402, 4691519.923619878478348 ], [ 268225.471231051429641, 4691519.822086054831743 ], [ 268214.413557052088436, 4691519.632280838675797 ], [ 268197.989969960297458, 4691519.286626865155995 ], [ 268181.330259946291335, 4691519.282338331453502 ], [ 268181.403792982397135, 4691521.503300142474473 ], [ 268181.609685634030029, 4691527.721993248909712 ], [ 268181.351256932655815, 4691552.29908053856343 ], [ 268188.996755730244331, 4691688.562503829598427 ], [ 268197.997128758579493, 4691918.052615507505834 ], [ 268197.119521642103791, 4691938.870442638173699 ], [ 268202.054291529231705, 4692025.641907628625631 ], [ 268208.497431449592113, 4692138.043688804842532 ], [ 268218.181597108894493, 4692308.480048806406558 ], [ 268181.310641563963145, 4692318.149922088719904 ], [ 268060.067072575446218, 4692349.847557586617768 ], [ 267986.569448865659069, 4692369.069963230751455 ], [ 267950.826500480703544, 4692377.925514061003923 ], [ 267871.345653534226585, 4692398.236883502453566 ], [ 267892.232665596529841, 4692854.009875548072159 ], [ 267896.548966113012284, 4693175.594063234515488 ], [ 268262.522792287461925, 4693164.46607643738389 ], [ 268273.951428874453995, 4693517.052706002257764 ], [ 268299.637834175431635, 4694444.473350482992828 ], [ 268304.115292686736211, 4694597.073065063916147 ], [ 268307.326804414624348, 4694674.118905196897686 ], [ 268309.80860011454206, 4694731.622941072098911 ], [ 268970.257282388745807, 4694691.101093803532422 ], [ 269151.17092766193673, 4694677.679680943489075 ], [ 269148.345339272287674, 4695246.404620138928294 ], [ 269116.336582524934784, 4695610.096440866589546 ], [ 269214.535370855999645, 4695601.074013804085553 ], [ 269519.578265019692481, 4695588.345094789750874 ], [ 269527.018266267376021, 4695331.410399456508458 ], [ 269531.039838969358243, 4695198.31966323684901 ], [ 269535.431248708162457, 4695191.504806410521269 ], [ 269607.25224334129598, 4695077.19128851313144 ], [ 270049.133255839871708, 4695046.418199244886637 ], [ 270053.129408080072608, 4695047.620833403430879 ], [ 269997.355395843216684, 4694429.357359201647341 ], [ 269994.406578802736476, 4694392.324086248874664 ], [ 270761.577160757617094, 4694342.462721564806998 ], [ 270765.229308881680481, 4693573.287144212983549 ], [ 270768.621527953771874, 4693155.854174832813442 ], [ 270786.719664061209187, 4693162.153734995983541 ], [ 270801.320894220843911, 4693164.899352141655982 ], [ 270818.750235884450376, 4693165.884872439317405 ], [ 271378.298449606751092, 4693167.147783850319684 ], [ 271702.950237710145302, 4693163.552614286541939 ], [ 271788.34318677871488, 4693165.325168946757913 ], [ 271791.183061480289325, 4693391.455496543087065 ], [ 271790.977844187291339, 4693900.825447333045304 ], [ 273442.830584448238369, 4693883.268980677239597 ], [ 273487.404539321898483, 4693879.935939309187233 ], [ 273493.405490427976474, 4693879.40816508140415 ], [ 273570.956133441592101, 4693873.562993451021612 ], [ 273593.603096009464934, 4693872.830094293691218 ], [ 273664.433506116969511, 4693870.760688344016671 ], [ 273675.3899917298113, 4693870.517416916787624 ], [ 273905.336313090054318, 4693863.638580002821982 ], [ 274231.746222342830151, 4693862.213446601293981 ], [ 274215.278789930627681, 4693566.494348855689168 ], [ 274394.259625844890252, 4693579.285468042828143 ], [ 274627.024569740809966, 4693595.684341059997678 ], [ 274626.314180768560618, 4693860.275062979198992 ], [ 275087.205613844678737, 4693864.89714630227536 ], [ 275069.924439232447185, 4693191.363795825280249 ], [ 275255.78774524317123, 4693197.508818926289678 ], [ 275334.415656450903043, 4693199.319360963068902 ], [ 275443.667007008567452, 4693199.703381861560047 ], [ 275438.959151462302543, 4691978.741993514820933 ], [ 275434.578181681281421, 4691577.366675457917154 ], [ 275672.166488559683785, 4691582.867301714606583 ], [ 276042.05715424666414, 4691584.253820673562586 ], [ 276442.220006073010154, 4691591.140449018217623 ], [ 276660.386504346271977, 4691592.848184169270098 ], [ 276717.051042012055404, 4691593.2640530616045 ], [ 276748.228877829562407, 4691593.492582151666284 ], [ 276796.236589183856267, 4691593.962813325226307 ], [ 276872.037485116219614, 4691594.548010667786002 ], [ 277065.463688002782874, 4691598.835367646999657 ], [ 277191.146582976798527, 4691604.394277635961771 ], [ 277243.903614800306968, 4691603.827145501039922 ], [ 278162.216856833198108, 4691612.686427096836269 ], [ 278328.775340205989778, 4691614.969733718782663 ], [ 278386.0765794897452, 4691614.711941524408758 ], [ 278530.695797992870212, 4691614.248610105365515 ], [ 278695.695373211172409, 4691616.812237118370831 ], [ 278938.458189254975878, 4691616.923963573761284 ], [ 279096.638932992587797, 4691617.711465250700712 ], [ 279390.885781743039843, 4691621.438991444185376 ], [ 279582.524460582586471, 4691621.627877877093852 ], [ 279905.32259414321743, 4691623.477711248211563 ], [ 279919.242958902381361, 4692797.856050445698202 ], [ 280377.432112645066809, 4692791.577159788459539 ], [ 280362.531462120939977, 4692395.55000320635736 ], [ 280731.238069316721521, 4692395.550309046171606 ], [ 280730.951114278519526, 4692610.090276299975812 ], [ 280731.608294647128787, 4692662.646463735960424 ], [ 280732.918057969538495, 4692772.872172439470887 ], [ 280733.00269177602604, 4692778.205008973367512 ], [ 280733.105857407324947, 4692786.760789062827826 ], [ 280734.005349230836146, 4692868.098808695562184 ], [ 280733.029382942069788, 4692921.150811198167503 ], [ 280732.908695758087561, 4692927.823954477906227 ], [ 280733.968209745828062, 4693045.838478482328355 ], [ 280735.858229547739029, 4693219.293890779837966 ], [ 280736.675657644635066, 4693387.447469734586775 ], [ 281001.809533301915508, 4693280.104595514945686 ], [ 281320.781160488142632, 4693267.68378013651818 ], [ 281673.490141927497461, 4693329.921457567252219 ], [ 281960.568356984760612, 4693339.088453117758036 ], [ 282043.247120178071782, 4693354.853187889792025 ], [ 282053.113068390695844, 4693356.657824856229126 ], [ 282134.878529542591423, 4693372.229748939163983 ], [ 282337.305189056962263, 4693410.947543662041426 ], [ 282337.890158656868152, 4693217.743052028119564 ], [ 282338.339272905723192, 4693097.015472660772502 ], [ 282342.784374038921669, 4693017.290727938525379 ], [ 282342.971137252578046, 4693007.392186337150633 ], [ 282428.570592131698504, 4693010.955010632053018 ], [ 282441.991618335014209, 4693010.426608792506158 ], [ 282448.748489115736447, 4693010.327707698568702 ], [ 282456.49021275981795, 4693010.087043674662709 ], [ 282896.600054692593403, 4693011.869982231408358 ], [ 283022.602561386302114, 4693015.742861446924508 ], [ 283017.984012809116393, 4692986.430366581305861 ], [ 282999.907112971646711, 4692629.409910933114588 ], [ 283717.353914405452088, 4692577.302386411465704 ], [ 283721.62350032303948, 4692464.683906607329845 ], [ 283722.818140932475217, 4692396.62154557928443 ], [ 283725.417155928909779, 4692245.929377388209105 ], [ 283774.64872858079616, 4692243.630353077314794 ], [ 284413.901564543135464, 4692213.242230857722461 ], [ 284411.312083975528367, 4691944.445592225529253 ], [ 284410.892743770440575, 4691887.993369595147669 ], [ 284409.200873194728047, 4691672.410946318879724 ], [ 284527.204018387710676, 4691672.890734397806227 ], [ 284536.192992908705492, 4691672.947537694126368 ], [ 284735.457248641992919, 4691672.264213568530977 ], [ 284994.883929388830438, 4691673.406650673598051 ], [ 285036.355247192666866, 4691673.355823862366378 ], [ 285316.175595028442331, 4691672.772467288188636 ], [ 285513.735085048596375, 4691675.720333684235811 ], [ 285533.367104366188869, 4691676.008106850087643 ], [ 286079.647812803508714, 4691680.302122624590993 ], [ 286331.70790347608272, 4691683.386265134438872 ], [ 286370.868813828681596, 4691683.302682201378047 ], [ 286695.54669430834474, 4691683.072872175835073 ], [ 286885.793072263244539, 4691684.28142477106303 ], [ 286918.212756812688895, 4691684.850703655742109 ], [ 286919.14744630898349, 4691406.727224088273942 ], [ 286927.711639850342181, 4691354.893432096578181 ], [ 286926.8768917262787, 4691205.534538740292192 ], [ 286890.187453529331833, 4690661.020684100687504 ], [ 286910.442634948762134, 4690107.105306607671082 ], [ 286537.47783696296392, 4690113.682259598746896 ], [ 286536.335157446097583, 4690073.481073739938438 ], [ 286538.59142393397633, 4690001.3876424850896 ], [ 286536.764640261535533, 4689908.967204108834267 ], [ 286520.618801346980035, 4689306.030705620534718 ], [ 286519.019050517817959, 4688901.608198838308454 ], [ 286310.806701773894019, 4688903.397682442329824 ], [ 286326.178022879641503, 4688663.624813571572304 ], [ 286113.020758934784681, 4688673.906669300980866 ], [ 286122.521969466120936, 4688493.332473755814135 ], [ 286121.14694324368611, 4688437.466339946724474 ], [ 286111.376399080560077, 4688025.400765646249056 ], [ 286098.071874195418786, 4687692.136883690021932 ], [ 285872.772559102508239, 4687702.905724701471627 ], [ 285345.700100286630914, 4687724.472461790777743 ], [ 285324.367001974955201, 4687725.570366340689361 ], [ 284941.059684527164791, 4687754.325857668183744 ], [ 284958.955660857551266, 4688087.56155545450747 ], [ 284960.367818003171124, 4688155.097712900489569 ], [ 284635.984446193499025, 4688175.839447135105729 ], [ 284629.58599421591498, 4688163.587168708443642 ], [ 284606.302524568920489, 4688170.97173186019063 ], [ 284548.13769109750865, 4688176.094033961184323 ], [ 284521.456279659585562, 4688174.913568615913391 ], [ 284514.038951440365054, 4688175.141613313928246 ], [ 284514.749243364785798, 4688120.433508235961199 ], [ 284512.858970948727801, 4687769.143601654097438 ], [ 284073.537336124340072, 4687765.767841968685389 ], [ 282228.714485179865733, 4687708.017862602137029 ], [ 282098.283963467285503, 4686866.638568606227636 ], [ 282361.457227600214537, 4686870.802866796031594 ], [ 282554.35017802438233, 4686875.600040562450886 ], [ 282645.543646236241329, 4686362.470765233971179 ], [ 282160.725828095572069, 4686302.930286966264248 ], [ 282183.359203271684237, 4685921.083519350737333 ], [ 281699.280429870355874, 4685981.928856089711189 ], [ 281660.398335184785537, 4685464.496853966265917 ], [ 281658.541913936671335, 4685439.322800006717443 ], [ 281643.577837756369263, 4685242.268888091668487 ], [ 281605.791302954894491, 4685242.667053205892444 ], [ 281585.723136166925542, 4685040.770190013572574 ], [ 281508.399777023005299, 4685027.83866673707962 ], [ 281502.079619867028669, 4684541.294343640096486 ], [ 281500.282355085597374, 4684470.323261763900518 ], [ 281691.064898004638962, 4684495.285741189494729 ], [ 281691.575368233141489, 4684466.592327246442437 ], [ 281692.204501312284265, 4684428.447200136259198 ], [ 281496.531859442649875, 4684408.194128036499023 ], [ 281476.683076364686713, 4684149.824757725931704 ], [ 281557.066650922584813, 4684159.993640517815948 ], [ 281695.389173060772009, 4684180.587673052214086 ], [ 281739.397949689300731, 4683968.694832975976169 ], [ 281777.664964088005945, 4683964.948325139470398 ], [ 281798.816368555999361, 4683957.621490625664592 ], [ 281819.28737524227472, 4683949.648957206867635 ], [ 281837.50461556535447, 4683943.524992937222123 ], [ 281862.31606464937795, 4683939.75263181887567 ], [ 281876.238602483295836, 4683936.207624925300479 ], [ 281905.490415031963494, 4683913.290272663347423 ], [ 281951.151198323932476, 4683873.857224018312991 ], [ 281988.714447412407026, 4683842.123273318633437 ], [ 282000.979738490772434, 4683827.737040458247066 ], [ 282009.722827250603586, 4683811.570633818395436 ], [ 282013.429542329744436, 4683774.108186800032854 ], [ 282019.150341472006403, 4683740.362386530265212 ], [ 282032.139073467929848, 4683709.392006882466376 ], [ 282051.044123486615717, 4683669.568033804185688 ], [ 282069.488882434670813, 4683596.301477464847267 ], [ 282073.499544968246482, 4683568.61110027693212 ], [ 282079.713907752884552, 4683550.744892575778067 ], [ 282087.117367176804692, 4683533.953302414156497 ], [ 282081.239923675428145, 4683520.130547364242375 ], [ 282082.867025447194465, 4683503.40714146476239 ], [ 282209.533576800313313, 4683438.008457915857434 ], [ 282125.752379410900176, 4682783.91968950163573 ], [ 282124.562528319307603, 4682774.842117369174957 ], [ 282094.878136539657135, 4682595.140706991776824 ], [ 282091.642734967637807, 4682578.679413230158389 ], [ 282031.085557649610564, 4682667.813813893124461 ], [ 281998.390471321821678, 4682718.291795201599598 ], [ 281958.164110216661356, 4682781.452947650104761 ], [ 281944.38898493652232, 4682803.110920860432088 ], [ 281932.974490638414863, 4682821.027567484416068 ], [ 281774.947613660711795, 4683070.362847667187452 ], [ 281742.737098852114286, 4683117.714963937178254 ], [ 281704.946771935909055, 4683168.797667182981968 ], [ 281672.30979160789866, 4683207.7158128824085 ], [ 281643.791720534383785, 4683235.724169677123427 ], [ 281597.784308576025069, 4683274.72517132293433 ], [ 281565.623703456833027, 4683299.734932352788746 ], [ 281518.996924462495372, 4683329.418919076211751 ], [ 281475.18694547546329, 4683351.457132611423731 ], [ 281422.480564206605777, 4683374.106117662973702 ], [ 281387.541976993205026, 4683386.754102835431695 ], [ 281345.878280671720859, 4683398.166761330328882 ], [ 281317.835343448095955, 4683404.264568560756743 ], [ 281283.696424543391913, 4683410.774740454740822 ], [ 281236.021155954047572, 4683414.705798101611435 ], [ 281192.678865861380473, 4683417.27942377794534 ], [ 281149.627772602834739, 4683415.953863745555282 ], [ 281119.25659329269547, 4683413.566240674816072 ], [ 281051.984319652081467, 4683405.882758429273963 ], [ 281042.788320567226037, 4683404.835761958733201 ], [ 281030.698855887225363, 4683403.656731083057821 ], [ 281007.921941576176323, 4683401.254990207031369 ], [ 280651.02850468934048, 4683353.153382433578372 ], [ 280635.534977529605385, 4683187.573294906876981 ], [ 280630.634633312642109, 4683131.148990226909518 ], [ 280626.576125748164486, 4683085.813791665248573 ], [ 280625.707301362999715, 4683076.503998325206339 ], [ 280571.096879006829113, 4682525.7749187592417 ], [ 280574.570767936878838, 4682523.332119619473815 ], [ 280601.263807218987495, 4682497.710636474192142 ], [ 280620.306106904463377, 4682470.327535455115139 ], [ 280638.593829505960457, 4682424.071901425719261 ], [ 280642.908801246783696, 4682406.263622388243675 ], [ 280646.185027029423509, 4682373.704326495528221 ], [ 280644.443202809139621, 4682352.306033951230347 ], [ 280641.37737058266066, 4682328.170255793258548 ], [ 280633.159264033660293, 4682302.972744806669652 ], [ 280623.470239576825406, 4682278.265810408629477 ], [ 280608.805014434852637, 4682255.492822324857116 ], [ 280591.09464405325707, 4682233.037315340712667 ], [ 280549.322085741499905, 4682188.324916019104421 ], [ 280536.717577558243647, 4682173.37958633992821 ], [ 280525.673334061983041, 4682158.163202208466828 ], [ 280513.482193658070173, 4682135.313052997924387 ], [ 280504.724229444924276, 4682111.355221938341856 ], [ 280498.88800722907763, 4682088.417611185461283 ], [ 280496.279213631059974, 4682065.712582210078835 ], [ 280492.016142482869327, 4682005.933822412975132 ], [ 280491.031371053191833, 4681842.345922195352614 ], [ 280490.81502049556002, 4681809.006491838954389 ], [ 280489.42678207939025, 4681685.335524606518447 ], [ 280488.021360932267271, 4681561.109350463375449 ], [ 280486.917023771908134, 4681420.089553961530328 ], [ 280486.828163887257688, 4681398.75078362505883 ], [ 280484.860222003306262, 4681312.001104089431465 ], [ 280484.95592679962283, 4681275.428489583544433 ], [ 280482.62373417627532, 4681118.885595847852528 ], [ 280480.519689054344781, 4680977.563684063032269 ], [ 280480.290673096140381, 4680840.740518315695226 ], [ 280479.907388083229307, 4680799.403290080837905 ], [ 280479.576548059121706, 4680749.172124888747931 ], [ 280479.325551968824584, 4680725.281909302808344 ], [ 280478.075674937688746, 4680611.27721939701587 ], [ 280476.061389690556098, 4680504.521426999010146 ], [ 280470.194382812129334, 4680401.331795149482787 ], [ 280468.123284986475483, 4680372.051930714398623 ], [ 280466.999467864341568, 4680349.300537195987999 ], [ 280466.396175149828196, 4680319.41904445271939 ], [ 280462.241974487376865, 4680109.801868164911866 ], [ 280459.331720968242735, 4679699.402519307099283 ], [ 280458.250044127518777, 4679580.16854711342603 ], [ 280454.860005126451142, 4679455.782492470927536 ], [ 280450.757904926897027, 4679165.800017062574625 ], [ 280444.154418873949908, 4678763.964334465563297 ], [ 280439.800336044922005, 4678132.527131563052535 ], [ 280438.609511671122164, 4678115.557869197800756 ], [ 280439.013186594936997, 4678107.319922632537782 ], [ 280428.272691723075695, 4677594.016327859833837 ], [ 280434.335096543771215, 4677576.487149071879685 ], [ 280436.848258499638177, 4677559.068791707977653 ], [ 280438.191321240155958, 4677538.574681136757135 ], [ 280438.749779126374051, 4677529.998453776352108 ], [ 280438.595235173590481, 4677517.109515387564898 ], [ 280438.268153442535549, 4677488.108760555274785 ], [ 280436.967514256481081, 4677374.995496018789709 ], [ 280435.763987264363095, 4677222.642184697091579 ], [ 280433.959521217853762, 4677101.319373579695821 ], [ 280430.786908623995259, 4676883.225016959942877 ], [ 280429.978203545033466, 4676838.789059974253178 ], [ 280428.815310528036207, 4676780.358885508030653 ], [ 280427.738464507972822, 4676722.037183335050941 ], [ 280426.362917352642398, 4676651.497984113171697 ], [ 280424.492048763320781, 4676551.852181044407189 ], [ 280422.068958436953835, 4676341.848784488625824 ], [ 280419.071165572036989, 4676084.289974818006158 ], [ 280413.725948700681329, 4675952.740678591653705 ], [ 280409.056107565527782, 4675660.109930382110178 ], [ 280408.423561535659246, 4675570.985150845721364 ], [ 280402.986817623488605, 4675150.441768347285688 ], [ 280402.862014495418407, 4675130.549333880655468 ], [ 280399.051549242809415, 4674759.41842270642519 ], [ 280398.632372577791102, 4674714.192394937388599 ], [ 280395.386271715397015, 4674562.459251164458692 ], [ 279991.926411967840977, 4674583.283452682197094 ], [ 279994.445566441048868, 4674724.702505518682301 ], [ 279709.776146133430302, 4674745.721871264278889 ], [ 279581.794109888840467, 4674755.286232401616871 ], [ 279116.549487197771668, 4674782.431536265648901 ], [ 279095.109023008146323, 4674170.312626802362502 ], [ 279107.704656119924039, 4674166.02701261639595 ], [ 279114.908097377745435, 4674161.132529309950769 ], [ 279118.303742008924019, 4674150.799831788055599 ], [ 279118.766181991668418, 4674136.5576276415959 ], [ 279116.071600708062761, 4674055.944470200687647 ], [ 279117.472996570868418, 4673942.523587815463543 ], [ 278763.696617145673372, 4673948.852119791321456 ], [ 278766.517346097389236, 4674096.487448113039136 ], [ 278767.216765883204062, 4674247.63525755982846 ], [ 278774.086170723603573, 4674671.361914877779782 ], [ 278777.052927229902707, 4674781.53379825502634 ], [ 278732.60090221115388, 4674776.817585906013846 ], [ 278545.143433586170431, 4674756.035993501543999 ], [ 278338.392332186747808, 4674755.207816825248301 ], [ 278309.459540239244234, 4674755.118642811663449 ], [ 277154.341874225006904, 4674750.690159126184881 ], [ 277154.484569406427909, 4674773.472652609460056 ], [ 277033.699376830016263, 4674775.408159863203764 ], [ 276981.924515074933879, 4674777.048460218124092 ], [ 276972.015450322884135, 4674777.362436792813241 ], [ 276970.776817222475074, 4674777.40168484672904 ], [ 276964.005622911150567, 4674777.616244735196233 ], [ 276924.223438304965384, 4674776.876145382411778 ], [ 276856.59404637676198, 4674779.019867829978466 ], [ 276854.36994238186162, 4674781.869290919974446 ], [ 276759.218261443893425, 4674784.10845576506108 ], [ 276749.388247935858089, 4674784.309082348830998 ], [ 276752.589631981274579, 4675109.34069846291095 ], [ 276752.765024919644929, 4675127.898298874497414 ], [ 276753.804928960977122, 4675236.243078038096428 ], [ 276754.460634234535974, 4675600.81635882332921 ], [ 276194.786402680969331, 4675609.479752564802766 ], [ 275886.266390761360526, 4675609.850651567801833 ], [ 275533.755277500604279, 4675612.193966077640653 ], [ 275478.538024008623324, 4676344.932308376766741 ], [ 275148.624586878577247, 4676349.911069461144507 ], [ 275148.483849928132258, 4676441.176876051351428 ], [ 275004.669826044817455, 4676445.774950161576271 ], [ 274992.739019001426641, 4676444.822631669230759 ], [ 274870.772442873218097, 4676452.948747582733631 ], [ 274870.818550549796782, 4676712.614854981191456 ], [ 274890.531407500500791, 4676721.765984945930541 ], [ 274915.54789097327739, 4676723.633279269561172 ], [ 274976.544364410336129, 4676721.348298348486423 ], [ 275150.757351740379818, 4676716.555606025271118 ], [ 275151.079353619599715, 4676830.038443952798843 ], [ 275150.256469992804341, 4676943.89138044975698 ], [ 275150.815059091546573, 4677243.113184867426753 ], [ 274927.327992864244152, 4677246.704502423293889 ], [ 274912.380534046911635, 4677381.240827886387706 ], [ 274850.279142506362405, 4678009.500306746922433 ], [ 274804.972492717672139, 4678462.592193723656237 ], [ 274793.143684827722609, 4678557.567882331088185 ], [ 274693.894451041065622, 4678556.746181861497462 ], [ 274654.236278735101223, 4678556.683344756253064 ], [ 274074.551709958235733, 4678552.833917113021016 ], [ 274000.356407188693993, 4678503.862524463795125 ], [ 273578.4719276651158, 4678225.750962656922638 ], [ 273571.060486728558317, 4678013.561262437142432 ], [ 273545.387213259527925, 4677275.280054395087063 ], [ 273529.940051004989073, 4677275.44396130554378 ], [ 273133.367381138028577, 4677267.326689360663295 ], [ 272321.034480031928979, 4677250.890640696510673 ], [ 272190.492178349348251, 4677246.447112460620701 ], [ 271912.052183025283739, 4677260.473748052492738 ], [ 271906.273773413791787, 4677260.661145223304629 ], [ 271902.146337956888601, 4677260.79500325396657 ], [ 271892.157944079022855, 4677261.118949734605849 ], [ 271870.867580403806642, 4677262.031817537732422 ], [ 271773.758192744688131, 4677266.738610025495291 ], [ 271766.910254230664577, 4677267.071990832686424 ], [ 271705.454726146941539, 4677270.400497325696051 ], [ 271682.359117669519037, 4677271.70602392219007 ], [ 271679.473518671584316, 4677271.910862261429429 ], [ 271669.567676781385671, 4677272.232445816509426 ], [ 271504.405359197582584, 4677275.595405055209994 ], [ 271501.842741152504459, 4677275.567497457377613 ], [ 271488.473456114414148, 4677276.113022515550256 ], [ 271422.9153333780705, 4677277.798692492768168 ], [ 271135.516180467442609, 4677285.699873327277601 ], [ 271120.492303727194667, 4677286.188777500763535 ], [ 271076.74145258741919, 4677287.612692560069263 ], [ 271069.889904027921148, 4677287.835707723163068 ], [ 271068.734221133228857, 4677287.873325397260487 ], [ 271056.847197001799941, 4677288.260261087678373 ], [ 270954.792213886394165, 4677293.36170875094831 ], [ 270951.493879636458587, 4677293.580288338474929 ], [ 270927.637286054436117, 4677294.357265732251108 ], [ 270904.031309130135924, 4677292.680559672415257 ], [ 270964.461004923155997, 4677394.872715066187084 ], [ 270996.728994650882669, 4677449.403745781630278 ], [ 271064.795656922389753, 4677514.663946958258748 ], [ 271069.386016491451301, 4677774.970756068825722 ], [ 271071.46179696591571, 4677886.956092267297208 ], [ 271071.901672951178625, 4677910.619622369296849 ], [ 271075.517261358210817, 4678097.812641057185829 ], [ 270685.83634723443538, 4678115.179423674941063 ], [ 270684.668246436514892, 4677902.004811556078494 ], [ 270684.718074318370782, 4677888.330007596872747 ], [ 270684.759167072945274, 4677869.319614367559552 ], [ 270680.61033244774444, 4677868.787927982397377 ], [ 270675.915544102084823, 4677866.717751770280302 ], [ 270658.785098738619126, 4677863.385688084177673 ], [ 270569.266795168805402, 4677844.739994311705232 ], [ 270526.380550538946409, 4677834.578292581252754 ], [ 270523.265674147638492, 4677835.34692616481334 ], [ 270399.615734777238686, 4677889.962920242920518 ], [ 270083.63253817462828, 4678028.793815165758133 ], [ 270027.510272464482114, 4678053.529072252102196 ], [ 269494.571727897622623, 4678084.319475911557674 ], [ 269501.838011193554848, 4677582.503030222840607 ], [ 269158.628260237339418, 4677626.998978406190872 ], [ 269105.966731696331408, 4677633.841423321515322 ], [ 268713.858876715530641, 4677631.16304215695709 ], [ 268700.651540986495093, 4677631.597422004677355 ], [ 268693.494978086673655, 4677537.119150516577065 ], [ 268686.32403224776499, 4677341.702425321564078 ], [ 268683.136364208767191, 4677252.318463978357613 ], [ 268565.722744786122348, 4677252.84604627545923 ], [ 268166.135769699991215, 4677254.666997087188065 ], [ 268108.069796656956896, 4677255.580720461905003 ], [ 268112.962950395536609, 4677516.772743416950107 ], [ 268025.447972960828338, 4677519.214210750535131 ], [ 268038.916392234852538, 4677256.082412694580853 ], [ 267974.756280668196268, 4677257.642892771400511 ], [ 267932.475725854455959, 4677258.593164756894112 ], [ 267864.995240264688618, 4677259.708368754014373 ], [ 267697.322128197236452, 4677262.354084294289351 ], [ 267693.184648483758792, 4677344.754582453519106 ], [ 267622.931195636920165, 4677351.966799114830792 ], [ 267610.397363421856426, 4677545.367675554938614 ], [ 267608.939557902282104, 4677623.78894142434001 ], [ 267922.385425602667965, 4677649.011531535536051 ], [ 267921.813769104599487, 4678813.285388029180467 ], [ 267922.058373626787215, 4678875.753401110880077 ], [ 267522.071097732521594, 4678875.296245134435594 ], [ 267388.176521939749364, 4678871.387898281216621 ], [ 267111.071756343066227, 4678869.223488957621157 ], [ 266735.394534008519258, 4678867.005068423226476 ], [ 266737.122249076608568, 4679678.369353537447751 ], [ 267104.957565756863914, 4679669.616543386131525 ], [ 267128.372992559918202, 4680490.82122559659183 ], [ 266948.129218995338306, 4680493.240040596574545 ], [ 266529.842546531697735, 4680496.343284387141466 ], [ 266293.502547005424276, 4680496.085137277841568 ], [ 266313.640486048418097, 4680786.123985223472118 ], [ 265896.738540120015386, 4680820.458854374475777 ], [ 265898.903576075390447, 4681093.64307551458478 ], [ 265901.580189868982416, 4681297.884803989902139 ], [ 265885.459497493691742, 4681312.318354000337422 ], [ 265647.721440428809728, 4681309.017689344473183 ], [ 265636.257076300680637, 4681309.511350529268384 ], [ 264786.730898351408541, 4681311.336604143492877 ], [ 264359.515853303135373, 4681305.755155834369361 ], [ 264347.296606434276327, 4681310.834298701956868 ], [ 264337.437567200744525, 4681309.9421596666798 ], [ 264327.867020998266526, 4681310.263248408213258 ], [ 264300.513248695875518, 4681309.846964948810637 ], [ 264305.804386598407291, 4681467.533884359523654 ], [ 264308.412170510506257, 4681830.75714935362339 ], [ 264346.233789358404465, 4681830.599731515161693 ], [ 264345.92497653060127, 4681959.236345707438886 ], [ 264300.330687557405327, 4681959.098810405470431 ], [ 264286.931611511972733, 4681963.439541919156909 ], [ 264287.252141321427189, 4681972.989601675421 ], [ 264288.930392810667399, 4681981.160024598240852 ], [ 264293.413126042345539, 4682156.550654971040785 ], [ 264299.011973193148151, 4682320.897804343141615 ], [ 264297.563884140050504, 4682324.50392544362694 ], [ 264299.202066528378054, 4682326.561214257963002 ], [ 264315.200876440212596, 4682800.730351488105953 ], [ 264322.267877756850794, 4683112.10956344474107 ], [ 264547.684729527914897, 4683101.766588725149632 ], [ 264707.202270390291233, 4683088.85880018863827 ], [ 264783.136831754120067, 4683082.867919226177037 ], [ 264792.333693227788899, 4683581.61090411990881 ], [ 264712.150975135562476, 4683581.407672190107405 ], [ 264587.302963323134463, 4683581.369104195386171 ], [ 264573.52170626190491, 4683581.608961532823741 ], [ 264385.308551772148348, 4683580.586663321591914 ], [ 264316.439871262642555, 4683580.452864585444331 ], [ 264321.411941429774743, 4683595.73891635145992 ], [ 264322.347789273480885, 4683623.611819942481816 ], [ 264324.387282179028261, 4683684.354764426127076 ], [ 264325.406229530810378, 4683790.935107986442745 ], [ 264342.830901983077638, 4684764.667858544737101 ], [ 264346.575754542718641, 4684785.22023606672883 ], [ 264348.275988205801696, 4684838.30375094152987 ], [ 264348.606686042854562, 4684877.647832222282887 ], [ 264353.577015815186314, 4685033.011738067492843 ], [ 264353.78512013994623, 4685066.245440257713199 ], [ 264354.174860639323015, 4685134.381333081051707 ], [ 264354.425751434522681, 4685181.176698992960155 ], [ 264355.407728249905631, 4685249.737405575811863 ], [ 264355.955351339536719, 4685293.076453334651887 ], [ 264233.73410908470396, 4685296.626883892342448 ], [ 264136.834877708053682, 4685299.550425759516656 ], [ 264044.466996174538508, 4685208.937341420911252 ], [ 263836.580761627526954, 4685210.818069651722908 ], [ 263541.786072315648198, 4685213.29888550657779 ], [ 263057.840128636918962, 4685217.619489129632711 ], [ 263069.3993591236067, 4685403.446307778358459 ] ], [ [ 275069.924439232447185, 4693191.363795825280249 ], [ 274631.684903291985393, 4693172.114826080389321 ], [ 274627.022447722265497, 4692766.18728400953114 ], [ 275060.918348682811484, 4692785.466181223280728 ], [ 275069.924439232447185, 4693191.363795825280249 ] ] ] } }
]
}
